# From MPC115889
379P/Spacewatch,e,12.4417,183.7848,30.6870,3.499371,0.1505633,0.34724525,224.0072,09/04.0/2023,2000,g 15.0,4.0
# From MPEC 2023-C45
380P/PANSTARRS,e,8.0217,129.3098,87.3989,4.410760,0.1063981,0.34182683,168.0796,09/04.0/2023,2000,g 12.5,4.0
# From MPEC 2021-J28
381P/LINEAR-Spacewatch,e,28.3732,173.7696,173.3277,7.140327,0.0516567,0.68155867,74.2830,09/04.0/2023,2000,g 17.5,2.0
# From MPEC 2022-Y15
382P/Larson,e,8.3501,173.1358,163.6768,6.047623,0.0662715,0.27823272,41.8618,09/04.0/2023,2000,g  8.0,4.0
# From MPEC 2022-OB6
383P/Christensen,e,12.3272,207.8162,133.7950,3.547431,0.1475140,0.59913786,207.7616,09/04.0/2023,2000,g 18.0,4.0
# From MPEC 2022-OB6
384P/Kowalski,e,7.2832,354.2130,37.6744,2.899231,0.1996549,0.61629948,283.9069,09/04.0/2023,2000,g 19.5,4.0
# From MPEC 2021-F20
385P/Hill,e,16.8285,357.0539,44.3781,4.288510,0.1109799,0.40217092,160.7793,09/04.0/2023,2000,g 13.0,4.0
# From MPEC 2021-L04
386P/PANSTARRS,e,15.2350,134.9257,353.0870,4.051588,0.1208554,0.41667256,134.2500,09/04.0/2023,2000,g 14.5,4.0
# From MPEC 2021-J28
387P/Boattini,e,8.9366,259.2293,162.8264,4.796920,0.0938124,0.73698749,136.7337,09/04.0/2023,2000,g 15.0,4.0
# From MPEC 2021-S45
388P/Gibbs,e,23.8914,37.0501,42.2890,5.240665,0.0821532,0.61902001,123.4076,09/04.0/2023,2000,g 13.0,4.0
# From MPEC 2022-OB6
389P/Siding Spring,e,160.0874,218.8863,249.4016,5.633676,0.0737083,0.70467843,99.0615,09/04.0/2023,2000,g 16.0,4.0
# From MPEC 2022-OB6
390P/Gibbs,e,18.5499,152.2602,232.4313,5.812427,0.0703344,0.70740959,88.6312,09/04.0/2023,2000,g 12.0,4.0
# From MPEC 2021-F20
391P/Kowalski,e,21.2617,124.7362,187.3362,4.686085,0.0971603,0.11930025,193.6046,09/04.0/2023,2000,g  8.0,4.0
# From MPEC 2021-J28
392P/LINEAR,e,4.9315,24.8825,71.8616,6.140289,0.0647770,0.68347732,81.0060,09/04.0/2023,2000,g 14.5,4.0
# From MPEC 2021-BE3
393P/Spacewatch-Hill,e,16.7878,36.3895,329.0204,4.794720,0.0938770,0.12030492,131.7734,09/04.0/2023,2000,g 11.0,4.0
# From MPEC 2020-KB7
394P/PANSTARRS,e,8.5298,98.1268,54.4199,4.329445,0.1094097,0.36751880,150.4037,09/04.0/2023,2000,g 16.0,2.4
# From MPEC 2023-Q33
395P/Catalina-NEAT,e,3.5056,221.2155,96.4366,7.015711,0.0530391,0.41278309,30.7812,09/04.0/2023,2000,g 10.0,4.0
# From MPEC 2020-KB7
396P/,e,5.4379,136.6394,8.3497,6.802929,0.0555469,0.41601314,81.5751,09/04.0/2023,2000,g 12.0,4.0
# From MPEC 2022-OB6
397P/Lemmon,e,10.9282,8.1955,14.5575,3.830586,0.1314638,0.40523758,153.9344,09/04.0/2023,2000,g 12.0,4.0
# From MPEC 2021-L04
398P/Boattini,e,11.0193,127.4259,320.2154,3.126089,0.1783208,0.58333144,174.9002,09/04.0/2023,2000,g 15.5,4.0
# From MPEC 2022-M88
399P/PANSTARRS,e,13.3224,207.1309,214.3666,3.792473,0.1334505,0.44740368,111.2989,09/04.0/2023,2000,g 14.0,4.0
# From MPEC 2022-ED3
400P/PANSTARRS,e,10.9292,176.3885,238.8472,3.561743,0.1466257,0.40969118,137.1481,09/04.0/2023,2000,g 15.5,2.8
# From MPEC 2022-K19
401P/McNaught,e,12.8024,359.8902,309.4401,5.777754,0.0709685,0.57914709,97.0706,09/04.0/2023,2000,g 12.5,4.0
# From MPEC 2023-M14
402P/LINEAR,e,30.8382,123.0838,326.7931,7.029257,0.0528859,0.43972532,33.2113,09/04.0/2023,2000,g 11.2,4.0
# From MPEC 2021-J28
403P/Catalina,e,12.3195,163.8014,277.6502,5.429251,0.0779102,0.50413822,84.3078,09/04.0/2023,2000,g 12.0,4.0
# From MPEC 2023-J29
404P/Bressi,e,9.7892,260.0461,169.3291,4.739394,0.0955256,0.12802698,354.1855,09/04.0/2023,2000,g 10.0,4.0
# From MPEC 2021-F20
406P/Gibbs,e,1.2124,11.5027,352.4390,3.577597,0.1456522,0.54184374,157.7431,09/04.0/2023,2000,g 17.0,4.0
# From MPEC 2022-YN2
407P/PANSTARRS-Fuls,e,4.8746,80.2909,93.5662,3.481215,0.1517427,0.37814631,199.8406,09/04.0/2023,2000,g 14.0,4.0
# From MPEC 2023-J29
408P/Novichonok-Gerke,e,19.3569,189.4409,226.5209,4.742319,0.0954373,0.26872617,31.8383,09/04.0/2023,2000,g 11.0,4.0
# From MPEC 2022-ED3
409P/LONEOS-Hill,e,17.1259,143.6571,15.0737,6.035942,0.0664640,0.70967537,63.0764,09/04.0/2023,2000,g 14.0,4.0
# From MPEC 2022-M21
410P/NEAT-LINEAR,e,9.3908,139.9657,313.1284,6.644371,0.0575471,0.51141959,46.1581,09/04.0/2023,2000,g 12.5,4.0
# From MPEC 2021-J28
411P/Christensen,e,12.3862,77.6520,46.5732,5.811785,0.0703461,0.58109618,67.0075,09/04.0/2023,2000,g 13.5,4.0
# From MPEC 2021-F20
412P/WISE,e,8.9310,0.8458,155.9205,3.110403,0.1796714,0.47893313,180.3051,09/04.0/2023,2000,g 17.0,4.0
# From MPEC 2022-OB6
413P/Larson,e,15.9936,38.9372,186.6864,3.725844,0.1370462,0.42161288,106.3044,09/04.0/2023,2000,g 14.0,4.0
# From MPEC 2021-BE3
414P/STEREO,e,23.4024,257.8096,210.6880,2.793161,0.2111349,0.81192405,200.9202,09/04.0/2023,2000,g 19.0,4.0
# From MPEC 2022-J42
415P/Tenagra,e,31.7930,160.2816,345.9392,4.110987,0.1182456,0.19482327,110.2574,09/04.0/2023,2000,g 12.0,4.0
# From MPEC 2021-L04
416P/Scotti,e,3.3613,355.7882,134.4043,4.008782,0.1227963,0.45463710,114.2733,09/04.0/2023,2000,g 15.5,4.0
# From MPEC 2021-W31
417P/NEOWISE,e,8.1791,109.7939,130.3601,3.329479,0.1622331,0.56203822,139.7503,09/04.0/2023,2000,g 16.5,4.0
# From MPEC 2022-TA0
418P/LINEAR,e,5.7851,277.3715,307.6428,5.095663,0.0856847,0.66421645,58.8397,09/04.0/2023,2000,g 13.0,4.0
# From MPEC 2022-ST7
419P/PANSTARRS,e,2.8027,40.3935,187.7521,3.524237,0.1489726,0.27702280,100.7106,09/04.0/2023,2000,g 12.5,4.0
# From MPEC 2022-OB6
420P/Hill,e,14.4895,173.8840,156.7011,5.519235,0.0760126,0.49599260,35.8090,09/04.0/2023,2000,g 11.5,4.0
# From MPEC 2021-W31
421P/McNaught,e,10.0760,55.3333,259.8936,5.076535,0.0861694,0.67499159,81.9980,09/04.0/2023,2000,g 14.0,4.0
# From MPEC 2022-X67
422P/Christensen,e,39.5853,36.0283,304.9136,6.290695,0.0624678,0.50687938,37.4496,09/04.0/2023,2000,g 11.0,4.0
# From MPEC 2023-FK0
423P/Lemmon,e,8.3464,33.2950,80.3796,6.172948,0.0642636,0.12204957,45.9091,09/04.0/2023,2000,g  8.0,4.0
# From MPEC 2022-CN4
424P/LaSagra,e,8.6850,51.1598,312.5559,4.417991,0.1061370,0.69117610,71.3640,09/04.0/2023,2000,g 17.0,4.0
# From MPEC 2023-BF4
425P/Kowalski,e,16.4212,210.0730,200.8541,6.341789,0.0617144,0.54400866,44.0102,09/04.0/2023,2000,g 12.0,4.0
# From MPEC 2022-P82
426P/PANSTARRS,e,17.7669,280.4314,118.7756,3.190596,0.1729404,0.16194591,358.5804,09/04.0/2023,2000,g 13.5,4.0
# From MPEC 2023-J29
428P/Gibbs,e,8.5091,299.3375,36.8842,3.486364,0.1514066,0.51905879,127.5614,09/04.0/2023,2000,g 15.0,4.0
# From MPEC 2022-H04
429P/LINEAR-Hill,e,7.5188,322.0679,75.6119,3.553402,0.1471423,0.49142144,89.7143,09/04.0/2023,2000,g 15.5,4.0
# From MPEC 2022-L66
430P/Scotti,e,4.4753,54.6741,94.4364,3.104811,0.1801571,0.49962832,115.4543,09/04.0/2023,2000,g 16.5,4.0
# From MPEC 2023-D72
431P/Scotti,e,22.3929,202.8417,199.9265,3.474794,0.1521635,0.47780774,86.3512,09/04.0/2023,2000,g 14.0,4.0
# From MPEC 2021-U31
432P/PANSTARRS,e,10.0683,239.1344,105.3030,3.036180,0.1863000,0.24163598,136.8757,09/04.0/2023,2000,g 17.0,4.0
# From MPEC 2022-OB6
434P/Tenagra,e,6.3367,288.9532,128.2137,4.131969,0.1173460,0.27473679,79.4966,09/04.0/2023,2000,g 13.0,4.0
# From MPEC 2021-W31
435P/PANSTARRS,e,18.8769,98.5440,244.2267,3.019621,0.1878345,0.31833248,144.3699,09/04.0/2023,2000,g 17.0,4.0
# From MPEC 2022-X67
436P/Garradd,e,20.2041,87.1788,282.6645,5.933019,0.0682010,0.66976842,43.2718,09/04.0/2023,2000,g 14.5,4.0
# From MPEC 2023-B57
437P/Lemmon-PANSTARRS,e,3.6888,245.8522,206.8091,4.563236,0.1011101,0.25481112,38.5315,09/04.0/2023,2000,g 13.0,4.0
# From MPEC 2021-W47
438P/Christensen,e,8.2823,260.1287,59.0337,3.849613,0.1304904,0.41499723,162.7520,09/04.0/2023,2000,g 14.5,4.0
# From MPEC 2022-C56
439P/LINEAR,e,7.1148,56.3992,342.0839,3.490035,0.1511679,0.46961566,111.6642,09/04.0/2023,2000,g 13.5,4.0
# From MPEC 2022-WQ9
440P/Kobayashi,e,12.3396,328.8633,183.2903,8.578012,0.0392305,0.76042378,20.5214,09/04.0/2023,2000,g 15.5,4.0
# From MPEC 2022-X67
441P/PANSTARRS,e,2.5744,143.6112,178.8359,4.134164,0.1172526,0.19525343,273.6921,09/04.0/2023,2000,g 13.5,4.0
# From MPEC 2023-J29
442P/McNaught,e,6.0586,32.0126,310.8169,4.969565,0.0889665,0.53304596,33.9248,09/04.0/2023,2000,g 13.5,4.0
# From MPEC 2023-Q33
443P/PANSTARRS-Christensen,e,19.8883,108.9432,145.1167,4.126265,0.1175895,0.28353344,38.6694,09/04.0/2023,2000,g 13.5,4.0
# From MPEC 2022-YN2
444P/WISE-PANSTARRS,e,22.1428,89.2644,171.1323,3.433715,0.1549023,0.57065908,65.1196,09/04.0/2023,2000,g 17.0,4.0
# From MPEC 2022-YB4
445P/Lemmon-PANSTARRS,e,1.0885,126.5915,213.5007,4.055350,0.1206873,0.41415453,46.1978,09/04.0/2023,2000,g 15.0,4.0
# From MPEC 2022-WQ9
446P/McNaught,e,16.6138,336.3884,344.6980,4.567934,0.1009542,0.64690454,46.6913,09/04.0/2023,2000,g 16.5,4.0
# From MPEC 2022-YB4
447P/Sheppard-Tholen,e,7.4358,302.6491,97.7283,5.636402,0.0736548,0.17901801,28.0409,09/04.0/2023,2000,g 12.0,4.0
# From MPEC 2023-A50
448P/PANSTARRS,e,12.1515,161.7539,218.7304,3.634262,0.1422590,0.41879912,51.5647,09/04.0/2023,2000,g 16.0,4.0
# From MPEC 2022-UE6
449P/Leonard,e,15.4689,242.5259,176.7048,3.600113,0.1442879,0.47976895,146.2791,09/04.0/2023,2000,g 16.0,4.0
# From MPEC 2023-Q33
450P/LONEOS,e,10.5532,124.8327,21.1846,7.973802,0.0437730,0.31124537,306.1191,09/04.0/2023,2000,g  6.5,4.0
# From MPEC 2023-HD1
451P/Christensen,e,26.4801,300.9056,186.7045,6.341257,0.0617222,0.55868795,17.3096,09/04.0/2023,2000,g 15.5,4.0
# From MPEC 2023-J29
452P/Sheppard-Jewitt,e,6.4219,123.6940,37.0407,7.298298,0.0499887,0.42751970,6.5706,09/04.0/2023,2000,g  9.0,4.0
# From MPEC 2023-Q33
453P/WISE-Lemmon,e,27.0681,42.8959,70.8355,5.459491,0.0772638,0.58265497,14.2900,09/04.0/2023,2000,g 14.0,4.0
# From MPEC 2023-CD7
454P/PANSTARRS,e,19.8125,54.5838,20.0369,4.206791,0.1142293,0.36148992,46.2453,09/04.0/2023,2000,g 14.0,4.0
# From MPEC 2022-Y14
455P/PANSTARRS,e,14.1373,146.1864,237.5205,3.153352,0.1760133,0.30502555,33.5697,09/04.0/2023,2000,g 17.0,4.0
# From MPEC 2023-N01
456P/PANSTARRS,e,16.9610,243.1835,234.1384,3.168391,0.1747615,0.11791391,256.2525,09/04.0/2023,2000,g 13.5,4.0
# From MPEC 2023-F99
457P/Lemmon-PANSTARRS,e,5.2254,175.9750,104.4504,2.645922,0.2290016,0.11877767,279.4972,09/04.0/2023,2000,g 15.5,4.0
# From MPEC 2023-HD1
